{
    "links": {
        "self": "http://www.neowsapp.com/rest/v1/neo/3469646?api_key=iIulBulltgU6a56xZRHN4H3l9WmuAYTsLGpBGhQ2"
    },
    "id": "3469646",
    "neo_reference_id": "3469646",
    "name": "(2009 SS172)",
    "designation": "2009 SS172",
    "nasa_jpl_url": "http://ssd.jpl.nasa.gov/sbdb.cgi?sstr=3469646",
    "absolute_magnitude_h": 23.4,
    "estimated_diameter": {
        "kilometers": {
            "estimated_diameter_min": 0.0555334912,
            "estimated_diameter_max": 0.1241766613
        },
        "meters": {
            "estimated_diameter_min": 55.5334911581,
            "estimated_diameter_max": 124.1766612574
        },
        "miles": {
            "estimated_diameter_min": 0.0345069009,
            "estimated_diameter_max": 0.0771597762
        },
        "feet": {
            "estimated_diameter_min": 182.1964991311,
            "estimated_diameter_max": 407.4037573197
        }
    },
    "is_potentially_hazardous_asteroid": false,
    "close_approach_data": [
        {
            "close_approach_date": "2005-10-03",
            "close_approach_date_full": "2005-Oct-03 10:20",
            "epoch_date_close_approach": 1128334800000,
            "relative_velocity": {
                "kilometers_per_second": "19.0409603763",
                "kilometers_per_hour": "68547.4573547682",
                "miles_per_hour": "42592.7242658003"
            },
            "miss_distance": {
                "astronomical": "0.3809615733",
                "lunar": "148.1940520137",
                "kilometers": "56991039.917528871",
                "miles": "35412590.1011295798"
            },
            "orbiting_body": "Earth"
        },
        {
            "close_approach_date": "2007-09-24",
            "close_approach_date_full": "2007-Sep-24 05:29",
            "epoch_date_close_approach": 1190611740000,
            "relative_velocity": {
                "kilometers_per_second": "13.9004769436",
                "kilometers_per_hour": "50041.7169970381",
                "miles_per_hour": "31093.9768751874"
            },
            "miss_distance": {
                "astronomical": "0.1798777585",
                "lunar": "69.9724480565",
                "kilometers": "26909329.531974395",
                "miles": "16720682.022840851"
            },
            "orbiting_body": "Earth"
        },
        {
            "close_approach_date": "2009-09-12",
            "close_approach_date_full": "2009-Sep-12 15:45",
            "epoch_date_close_approach": 1252770300000,
            "relative_velocity": {
                "kilometers_per_second": "9.8552871563",
                "kilometers_per_hour": "35479.0337625948",
                "miles_per_hour": "22045.2918398745"
            },
            "miss_distance": {
                "astronomical": "0.0854814021",
                "lunar": "33.2522654169",
                "kilometers": "12787835.678773527",
                "miles": "7945992.6302155926"
            },
            "orbiting_body": "Earth"
        },
        {
            "close_approach_date": "2013-06-13",
            "close_approach_date_full": "2013-Jun-13 08:56",
            "epoch_date_close_approach": 1371113760000,
            "relative_velocity": {
                "kilometers_per_second": "14.2049859084",
                "kilometers_per_hour": "51137.9492702213",
                "miles_per_hour": "31775.1329784883"
            },
            "miss_distance": {
                "astronomical": "0.3955510493",
                "lunar": "153.8693581777",
                "kilometers": "59173594.451544991",
                "miles": "36768766.6018272358"
            },
            "orbiting_body": "Earth"
        }
    ],
    "orbital_data": {
        "orbit_id": "9",
        "orbit_determination_date": "2017-04-06 08:59:43",
        "first_observation_date": "2009-09-29",
        "last_observation_date": "2009-10-19",
        "data_arc_in_days": 20,
        "observations_used": 30,
        "orbit_uncertainty": "8",
        "minimum_orbit_intersection": ".0750765",
        "jupiter_tisserand_invariant": "4.304",
        "epoch_osculation": "2455108.5",
        "eccentricity": ".3585346670101046",
        "semi_major_axis": "1.570205691020812",
        "inclination": "15.09105840588052",
        "ascending_node_longitude": "1.665820418355494",
        "orbital_period": "718.6761746403296",
        "perihelion_distance": "1.007232516453294",
        "perihelion_argument": "312.7892048029507",
        "aphelion_distance": "2.13317886558833",
        "perihelion_time": "2455052.967156762776",
        "mean_anomaly": "27.81756828853523",
        "mean_motion": ".5009210165902139",
        "equinox": "J2000",
        "orbit_class": {
            "orbit_class_type": "APO",
            "orbit_class_description": "Near-Earth asteroid orbits which cross the Earth’s orbit similar to that of 1862 Apollo",
            "orbit_class_range": "a (semi-major axis) > 1.0 AU; q (perihelion) < 1.017 AU"
        }
    },
    "is_sentry_object": false
}